OBJECT_NAME,OBJECT_ID,EPOCH,MEAN_MOTION,ECCENTRICITY,INCLINATION,RA_OF_ASC_NODE,ARG_OF_PERICENTER,MEAN_ANOMALY,EPHEMERIS_TYPE,CLASSIFICATION_TYPE,NORAD_CAT_ID,ELEMENT_SET_NO,REV_AT_EPOCH,BSTAR,MEAN_MOTION_DOT,MEAN_MOTION_DDOT
STARLINK-37478,2026-117Y,2026-06-11T16:00:01.998720,15.84759357,.0000882,53.1560,270.5759,62.7999,192.0087,0,U,69260,999,328,-.90669E-2,-.1882575E-1,0
STARLINK-37506,2026-117Z,2026-06-11T16:00:01.998720,15.84201737,.0001052,53.1558,270.5658,68.8577,190.6397,0,U,69261,999,328,-.96429E-2,-.1940225E-1,0
STARLINK-37503,2026-117AA,2026-06-11T16:00:01.998720,15.84014403,.0000967,53.1563,270.5613,62.2967,199.0939,0,U,69262,999,328,-.9533E-2,-.1905851E-1,0
STARLINK-37502,2026-117AB,2026-06-11T16:00:01.998720,15.83931752,.0001114,53.1561,270.5563,65.6874,197.9703,0,U,69263,999,328,-.79208E-2,-.1582742E-1,0
STARLINK-37486,2026-117AC,2026-06-11T16:00:01.998720,15.84050803,.0001005,53.1555,270.5485,52.7538,214.7682,0,U,69264,999,328,-.23013E-2,-.498944E-2,0
STARLINK-37435,2026-117AD,2026-06-11T16:00:01.998720,15.82709389,.0001294,53.1567,270.5518,68.2438,197.1887,0,U,69265,999,328,-.91204E-2,-.1700337E-1,0
STARLINK-37464,2026-117AE,2026-06-11T16:00:01.998720,15.81966961,.0001398,53.1570,270.5415,54.5280,215.6694,0,U,69266,999,328,.18408E-3,.37678E-3,0
KUIPER-00282,2026-118A,2026-06-11T16:28:54.100128,15.34689983,.0011893,51.8594,80.0598,160.2548,199.8900,0,U,69267,999,313,.56277E-3,.18914E-3,0
KUIPER-00383,2026-118B,2026-06-11T16:24:32.131008,15.34712147,.0010803,51.8593,80.0408,162.1296,198.0071,0,U,69268,999,313,.25318E-3,.8288E-4,0
KUIPER-00527,2026-118C,2026-06-11T11:38:33.148896,15.35131806,.0010264,51.8615,80.9621,153.1194,207.0325,0,U,69269,999,310,-.54528E-2,-.184993E-2,0
KUIPER-00562,2026-118D,2026-06-11T15:50:36.447648,15.38539784,.0001939,51.8719,79.8835,108.1682,251.9516,0,U,69270,999,313,.57042E-3,.21711E-3,0
KUIPER-00570,2026-118E,2026-06-11T16:23:17.916864,15.35336010,.0011955,51.8574,80.0333,165.1210,195.0130,0,U,69271,999,313,-.28099E-3,-.10191E-3,0
KUIPER-00572,2026-118F,2026-06-11T16:10:00.392160,15.36878580,.0007384,51.8671,79.9791,150.1552,209.9856,0,U,69272,999,313,.50742E-3,.18247E-3,0
KUIPER-00581,2026-118G,2026-06-11T16:13:47.510112,15.36565611,.0008884,51.8653,79.9967,154.9258,205.2162,0,U,69273,999,322,.50543E-3,.17995E-3,0
KUIPER-00584,2026-118H,2026-06-11T16:26:05.657280,15.35181182,.0011371,51.8610,80.0482,168.6749,191.4495,0,U,69274,999,313,-.18212E-5,-.452E-5,0
KUIPER-00587,2026-118J,2026-06-11T16:13:04.431936,15.36539127,.0008364,51.8624,79.9923,157.0417,203.0944,0,U,69275,999,313,.36067E-3,.12707E-3,0
KUIPER-00590,2026-118K,2026-06-11T15:59:30.871392,15.37770917,.0004411,51.8683,79.9322,137.6529,222.4799,0,U,69276,999,313,.5795E-3,.21515E-3,0
KUIPER-00592,2026-118L,2026-06-11T15:56:58.738272,15.38005336,.0003764,51.8704,79.9191,116.7541,243.3831,0,U,69277,999,313,.5544E-3,.20721E-3,0
KUIPER-00593,2026-118M,2026-06-11T15:57:36.772416,15.37891028,.0004091,51.8709,79.9209,134.6040,225.5281,0,U,69278,999,319,.38565E-3,.14228E-3,0
KUIPER-00594,2026-118N,2026-06-11T15:49:06.041280,15.38500996,.000108,51.8714,79.8811,74.2901,285.8205,0,U,69279,999,313,.40304E-3,.15191E-3,0
KUIPER-00595,2026-118P,2026-06-11T15:51:43.341120,15.38401127,.0001956,51.8707,79.8953,116.7057,243.4130,0,U,69280,999,316,.65066E-3,.24718E-3,0
KUIPER-00596,2026-118Q,2026-06-11T16:24:04.176288,15.35436614,.0011767,51.8556,80.0357,162.4733,197.6660,0,U,69281,999,313,.26864E-3,.9033E-4,0
KUIPER-00597,2026-118R,2026-06-11T16:07:41.619072,15.36970911,.0007224,51.8651,79.9690,147.4663,212.6769,0,U,69282,999,313,.81633E-3,.29728E-3,0
KUIPER-00599,2026-118S,2026-06-11T16:05:21.918912,15.37241248,.0006371,51.8687,79.9582,143.5088,216.6334,0,U,69283,999,313,.32285E-3,.11593E-3,0
KUIPER-00600,2026-118T,2026-06-11T16:12:15.270336,15.36588041,.0009048,51.8636,79.9896,153.1637,206.9819,0,U,69284,999,313,.37288E-3,.13174E-3,0
KUIPER-00601,2026-118U,2026-06-11T16:01:47.163072,15.37576988,.0005486,51.8701,79.9423,139.0463,221.0937,0,U,69285,999,313,.66287E-3,.24523E-3,0
KUIPER-00602,2026-118V,2026-06-11T15:56:01.500864,15.38035870,.0003225,51.8697,79.9157,127.0738,233.0544,0,U,69286,999,313,.54457E-3,.20366E-3,0
KUIPER-00603,2026-118W,2026-06-11T16:03:12.890016,15.37430217,.0005751,51.8668,79.9494,139.8805,220.2607,0,U,69287,999,313,.49783E-3,.18217E-3,0
KUIPER-00605,2026-118X,2026-06-11T16:08:51.531360,15.36967850,.0007721,51.8658,79.9743,145.0724,215.0771,0,U,69288,999,313,.32565E-3,.11594E-3,0
KUIPER-00606,2026-118Y,2026-06-11T16:00:22.508352,15.37681141,.0005153,51.8688,79.9359,131.3968,228.7462,0,U,69289,999,313,.85906E-3,.32038E-3,0
