STARLINK-37478          
1 69260U 26117Y   26162.66668980 -.01882575  00000+0 -90669-2 0  9995
2 69260  53.1560 270.5759 0000882  62.7999 192.0087 15.84759357  3284
STARLINK-37506          
1 69261U 26117Z   26162.66668980 -.01940225  00000+0 -96429-2 0  9993
2 69261  53.1558 270.5658 0001052  68.8577 190.6397 15.84201737  3281
STARLINK-37503          
1 69262U 26117AA  26162.66668980 -.01905851  00000+0 -95330-2 0  9990
2 69262  53.1563 270.5613 0000967  62.2967 199.0939 15.84014403  3281
STARLINK-37502          
1 69263U 26117AB  26162.66668980 -.01582742  00000+0 -79208-2 0  9997
2 69263  53.1561 270.5563 0001114  65.6874 197.9703 15.83931752  3283
STARLINK-37486          
1 69264U 26117AC  26162.66668980 -.00498944  00000+0 -23013-2 0  9990
2 69264  53.1555 270.5485 0001005  52.7538 214.7682 15.84050803  3287
STARLINK-37435          
1 69265U 26117AD  26162.66668980 -.01700337  00000+0 -91204-2 0  9991
2 69265  53.1567 270.5518 0001294  68.2438 197.1887 15.82709389  3288
STARLINK-37464          
1 69266U 26117AE  26162.66668980  .00037678  00000+0  18408-3 0  9996
2 69266  53.1570 270.5415 0001398  54.5280 215.6694 15.81966961  3289
KUIPER-00282            
1 69267U 26118A   26162.68673727  .00018914  00000+0  56277-3 0  9993
2 69267  51.8594  80.0598 0011893 160.2548 199.8900 15.34689983  3131
KUIPER-00383            
1 69268U 26118B   26162.68370522  .00008288  00000+0  25318-3 0  9996
2 69268  51.8593  80.0408 0010803 162.1296 198.0071 15.34712147  3131
KUIPER-00527            
1 69269U 26118C   26162.48510589 -.00184993  00000+0 -54528-2 0  9998
2 69269  51.8615  80.9621 0010264 153.1194 207.0325 15.35131806  3109
KUIPER-00562            
1 69270U 26118D   26162.66014407  .00021711  00000+0  57042-3 0  9999
2 69270  51.8719  79.8835 0001939 108.1682 251.9516 15.38539784  3134
KUIPER-00570            
1 69271U 26118E   26162.68284626 -.00010191  00000+0 -28099-3 0  9996
2 69271  51.8574  80.0333 0011955 165.1210 195.0130 15.35336010  3134
KUIPER-00572            
1 69272U 26118F   26162.67361565  .00018247  00000+0  50742-3 0  9992
2 69272  51.8671  79.9791 0007384 150.1552 209.9856 15.36878580  3136
KUIPER-00581            
1 69273U 26118G   26162.67624433  .00017995  00000+0  50543-3 0  9997
2 69273  51.8653  79.9967 0008884 154.9258 205.2162 15.36565611  3220
KUIPER-00584            
1 69274U 26118H   26162.68478770 -.00000452  00000+0 -18212-5 0  9991
2 69274  51.8610  80.0482 0011371 168.6749 191.4495 15.35181182  3132
KUIPER-00587            
1 69275U 26118J   26162.67574574  .00012707  00000+0  36067-3 0  9990
2 69275  51.8624  79.9923 0008364 157.0417 203.0944 15.36539127  3133
KUIPER-00590            
1 69276U 26118K   26162.66632953  .00021515  00000+0  57950-3 0  9997
2 69276  51.8683  79.9322 0004411 137.6529 222.4799 15.37770917  3137
KUIPER-00592            
1 69277U 26118L   26162.66456873  .00020721  00000+0  55440-3 0  9993
2 69277  51.8704  79.9191 0003764 116.7541 243.3831 15.38005336  3134
KUIPER-00593            
1 69278U 26118M   26162.66500894  .00014228  00000+0  38565-3 0  9991
2 69278  51.8709  79.9209 0004091 134.6040 225.5281 15.37891028  3194
KUIPER-00594            
1 69279U 26118N   26162.65909770  .00015191  00000+0  40304-3 0  9991
2 69279  51.8714  79.8811 0001080  74.2901 285.8205 15.38500996  3130
KUIPER-00595            
1 69280U 26118P   26162.66091830  .00024718  00000+0  65066-3 0  9990
2 69280  51.8707  79.8953 0001956 116.7057 243.4130 15.38401127  3163
KUIPER-00596            
1 69281U 26118Q   26162.68338167  .00009033  00000+0  26864-3 0  9996
2 69281  51.8556  80.0357 0011767 162.4733 197.6660 15.35436614  3139
KUIPER-00597            
1 69282U 26118R   26162.67200948  .00029728  00000+0  81633-3 0  9999
2 69282  51.8651  79.9690 0007224 147.4663 212.6769 15.36970911  3133
KUIPER-00599            
1 69283U 26118S   26162.67039258  .00011593  00000+0  32285-3 0  9994
2 69283  51.8687  79.9582 0006371 143.5088 216.6334 15.37241248  3130
KUIPER-00600            
1 69284U 26118T   26162.67517674  .00013174  00000+0  37288-3 0  9993
2 69284  51.8636  79.9896 0009048 153.1637 206.9819 15.36588041  3138
KUIPER-00601            
1 69285U 26118U   26162.66790698  .00024523  00000+0  66287-3 0  9993
2 69285  51.8701  79.9423 0005486 139.0463 221.0937 15.37576988  3137
KUIPER-00602            
1 69286U 26118V   26162.66390626  .00020366  00000+0  54457-3 0  9998
2 69286  51.8697  79.9157 0003225 127.0738 233.0544 15.38035870  3135
KUIPER-00603            
1 69287U 26118W   26162.66889919  .00018217  00000+0  49783-3 0  9995
2 69287  51.8668  79.9494 0005751 139.8805 220.2607 15.37430217  3131
KUIPER-00605            
1 69288U 26118X   26162.67281865  .00011594  00000+0  32565-3 0  9994
2 69288  51.8658  79.9743 0007721 145.0724 215.0771 15.36967850  3137
KUIPER-00606            
1 69289U 26118Y   26162.66692718  .00032038  00000+0  85906-3 0  9990
2 69289  51.8688  79.9359 0005153 131.3968 228.7462 15.37681141  3134
